CCSDS_OMM_VERS = 2.0
CREATION_DATE  = 
ORIGINATOR     = 

OBJECT_NAME    = ATLAS CENTAUR R/B
OBJECT_ID      = 1972-065B
CENTER_NAME    = EARTH
REF_FRAME      = TEME
TIME_SYSTEM    = UTC
MEAN_ELEMENT_THEORY = SGP/SGP4

EPOCH          = 2026-02-24T22:09:22.538592
MEAN_MOTION    = 14.77644154
ECCENTRICITY   = .00344638
INCLINATION    = 35.0027
RA_OF_ASC_NODE = 20.5659
ARG_OF_PERICENTER = 262.7536
MEAN_ANOMALY   = 96.9246

EPHEMERIS_TYPE = 0
CLASSIFICATION_TYPE = U
NORAD_CAT_ID   = 6155
ELEMENT_SET_NO = 999
REV_AT_EPOCH   = 83937
BSTAR          = .16834462E-3
MEAN_MOTION_DOT = .1213E-4
MEAN_MOTION_DDOT = 0

CCSDS_OMM_VERS = 2.0
CREATION_DATE  = 
ORIGINATOR     = 

OBJECT_NAME    = SL-8 R/B
OBJECT_ID      = 1975-112B
CENTER_NAME    = EARTH
REF_FRAME      = TEME
TIME_SYSTEM    = UTC
MEAN_ELEMENT_THEORY = SGP/SGP4

EPOCH          = 2026-02-24T21:54:26.804736
MEAN_MOTION    = 14.38195265
ECCENTRICITY   = .00147585
INCLINATION    = 74.0602
RA_OF_ASC_NODE = 42.4154
ARG_OF_PERICENTER = 140.6703
MEAN_ANOMALY   = 219.5526

EPHEMERIS_TYPE = 0
CLASSIFICATION_TYPE = U
NORAD_CAT_ID   = 8459
ELEMENT_SET_NO = 999
REV_AT_EPOCH   = 63003
BSTAR          = .60078113E-4
MEAN_MOTION_DOT = .157E-5
MEAN_MOTION_DDOT = 0

CCSDS_OMM_VERS = 2.0
CREATION_DATE  = 
ORIGINATOR     = 

OBJECT_NAME    = SL-3 R/B
OBJECT_ID      = 1977-057B
CENTER_NAME    = EARTH
REF_FRAME      = TEME
TIME_SYSTEM    = UTC
MEAN_ELEMENT_THEORY = SGP/SGP4

EPOCH          = 2026-02-24T21:32:20.777280
MEAN_MOTION    = 15.45083796
ECCENTRICITY   = .0006756
INCLINATION    = 97.5758
RA_OF_ASC_NODE = 227.2603
ARG_OF_PERICENTER = 337.4402
MEAN_ANOMALY   = 22.6548

EPHEMERIS_TYPE = 0
CLASSIFICATION_TYPE = U
NORAD_CAT_ID   = 10114
ELEMENT_SET_NO = 999
REV_AT_EPOCH   = 66635
BSTAR          = .25265464E-3
MEAN_MOTION_DOT = .11864E-3
MEAN_MOTION_DDOT = 0

CCSDS_OMM_VERS = 2.0
CREATION_DATE  = 
ORIGINATOR     = 

OBJECT_NAME    = SEASAT 1
OBJECT_ID      = 1978-064A
CENTER_NAME    = EARTH
REF_FRAME      = TEME
TIME_SYSTEM    = UTC
MEAN_ELEMENT_THEORY = SGP/SGP4

EPOCH          = 2026-02-24T20:06:04.411584
MEAN_MOTION    = 14.46148862
ECCENTRICITY   = .00019962
INCLINATION    = 108.0141
RA_OF_ASC_NODE = 98.5296
ARG_OF_PERICENTER = 290.8376
MEAN_ANOMALY   = 69.2555

EPHEMERIS_TYPE = 0
CLASSIFICATION_TYPE = U
NORAD_CAT_ID   = 10967
ELEMENT_SET_NO = 999
REV_AT_EPOCH   = 50465
BSTAR          = .87225408E-4
MEAN_MOTION_DOT = .174E-5
MEAN_MOTION_DDOT = 0

CCSDS_OMM_VERS = 2.0
CREATION_DATE  = 
ORIGINATOR     = 

OBJECT_NAME    = SL-14 R/B
OBJECT_ID      = 1979-011B
CENTER_NAME    = EARTH
REF_FRAME      = TEME
TIME_SYSTEM    = UTC
MEAN_ELEMENT_THEORY = SGP/SGP4

EPOCH          = 2026-02-24T13:39:07.495200
MEAN_MOTION    = 14.91890990
ECCENTRICITY   = .0017615
INCLINATION    = 82.5230
RA_OF_ASC_NODE = 109.0233
ARG_OF_PERICENTER = 100.7034
MEAN_ANOMALY   = 259.6170

EPHEMERIS_TYPE = 0
CLASSIFICATION_TYPE = U
NORAD_CAT_ID   = 11267
ELEMENT_SET_NO = 999
REV_AT_EPOCH   = 52682
BSTAR          = .49482E-4
MEAN_MOTION_DOT = .527E-5
MEAN_MOTION_DDOT = 0

CCSDS_OMM_VERS = 2.0
CREATION_DATE  = 
ORIGINATOR     = 

OBJECT_NAME    = SL-8 R/B
OBJECT_ID      = 1979-089B
CENTER_NAME    = EARTH
REF_FRAME      = TEME
TIME_SYSTEM    = UTC
MEAN_ELEMENT_THEORY = SGP/SGP4

EPOCH          = 2026-02-24T11:56:51.813888
MEAN_MOTION    = 14.42341796
ECCENTRICITY   = .00170321
INCLINATION    = 74.0683
RA_OF_ASC_NODE = 115.4649
ARG_OF_PERICENTER = 289.5140
MEAN_ANOMALY   = 70.4176

EPHEMERIS_TYPE = 0
CLASSIFICATION_TYPE = U
NORAD_CAT_ID   = 11574
ELEMENT_SET_NO = 999
REV_AT_EPOCH   = 43420
BSTAR          = .80156234E-4
MEAN_MOTION_DOT = .239E-5
MEAN_MOTION_DDOT = 0

CCSDS_OMM_VERS = 2.0
CREATION_DATE  = 
ORIGINATOR     = 

OBJECT_NAME    = SL-14 R/B
OBJECT_ID      = 1980-005B
CENTER_NAME    = EARTH
REF_FRAME      = TEME
TIME_SYSTEM    = UTC
MEAN_ELEMENT_THEORY = SGP/SGP4

EPOCH          = 2026-02-24T05:42:13.638240
MEAN_MOTION    = 14.90912018
ECCENTRICITY   = .0014974
INCLINATION    = 82.5166
RA_OF_ASC_NODE = 319.9942
ARG_OF_PERICENTER = 203.2035
MEAN_ANOMALY   = 156.8510

EPHEMERIS_TYPE = 0
CLASSIFICATION_TYPE = U
NORAD_CAT_ID   = 11672
ELEMENT_SET_NO = 999
REV_AT_EPOCH   = 47448
BSTAR          = .59362E-4
MEAN_MOTION_DOT = .612E-5
MEAN_MOTION_DDOT = 0

CCSDS_OMM_VERS = 2.0
CREATION_DATE  = 
ORIGINATOR     = 

OBJECT_NAME    = SL-8 R/B
OBJECT_ID      = 1981-003B
CENTER_NAME    = EARTH
REF_FRAME      = TEME
TIME_SYSTEM    = UTC
MEAN_ELEMENT_THEORY = SGP/SGP4

EPOCH          = 2026-02-24T14:53:25.940832
MEAN_MOTION    = 15.10439524
ECCENTRICITY   = .0262697
INCLINATION    = 82.9396
RA_OF_ASC_NODE = 302.1041
ARG_OF_PERICENTER = 224.0681
MEAN_ANOMALY   = 133.9351

EPHEMERIS_TYPE = 0
CLASSIFICATION_TYPE = U
NORAD_CAT_ID   = 12139
ELEMENT_SET_NO = 999
REV_AT_EPOCH   = 31270
BSTAR          = .40481E-3
MEAN_MOTION_DOT = .15522E-3
MEAN_MOTION_DDOT = 0

CCSDS_OMM_VERS = 2.0
CREATION_DATE  = 
ORIGINATOR     = 

OBJECT_NAME    = SL-3 R/B
OBJECT_ID      = 1981-046B
CENTER_NAME    = EARTH
REF_FRAME      = TEME
TIME_SYSTEM    = UTC
MEAN_ELEMENT_THEORY = SGP/SGP4

EPOCH          = 2026-02-24T20:51:56.237760
MEAN_MOTION    = 15.41615420
ECCENTRICITY   = .00205568
INCLINATION    = 81.2322
RA_OF_ASC_NODE = 305.1333
ARG_OF_PERICENTER = 65.0270
MEAN_ANOMALY   = 295.3105

EPHEMERIS_TYPE = 0
CLASSIFICATION_TYPE = U
NORAD_CAT_ID   = 12465
ELEMENT_SET_NO = 999
REV_AT_EPOCH   = 43645
BSTAR          = .25415713E-3
MEAN_MOTION_DOT = .10808E-3
MEAN_MOTION_DDOT = 0

CCSDS_OMM_VERS = 2.0
CREATION_DATE  = 
ORIGINATOR     = 

OBJECT_NAME    = SL-3 R/B
OBJECT_ID      = 1981-103B
CENTER_NAME    = EARTH
REF_FRAME      = TEME
TIME_SYSTEM    = UTC
MEAN_ELEMENT_THEORY = SGP/SGP4

EPOCH          = 2026-02-24T21:07:57.384192
MEAN_MOTION    = 15.21199663
ECCENTRICITY   = .00128011
INCLINATION    = 81.1570
RA_OF_ASC_NODE = 228.4576
ARG_OF_PERICENTER = 332.2836
MEAN_ANOMALY   = 27.7712

EPHEMERIS_TYPE = 0
CLASSIFICATION_TYPE = U
NORAD_CAT_ID   = 12904
ELEMENT_SET_NO = 999
REV_AT_EPOCH   = 97128
BSTAR          = .24135738E-3
MEAN_MOTION_DOT = .5418E-4
MEAN_MOTION_DDOT = 0

CCSDS_OMM_VERS = 2.0
CREATION_DATE  = 
ORIGINATOR     = 

OBJECT_NAME    = SL-3 R/B
OBJECT_ID      = 1982-013B
CENTER_NAME    = EARTH
REF_FRAME      = TEME
TIME_SYSTEM    = UTC
MEAN_ELEMENT_THEORY = SGP/SGP4

EPOCH          = 2026-02-24T21:27:25.290144
MEAN_MOTION    = 15.21859246
ECCENTRICITY   = .00219705
INCLINATION    = 81.1758
RA_OF_ASC_NODE = 175.7626
ARG_OF_PERICENTER = 221.0123
MEAN_ANOMALY   = 138.9457

EPHEMERIS_TYPE = 0
CLASSIFICATION_TYPE = U
NORAD_CAT_ID   = 13068
ELEMENT_SET_NO = 999
REV_AT_EPOCH   = 40240
BSTAR          = .18953049E-3
MEAN_MOTION_DOT = .4362E-4
MEAN_MOTION_DDOT = 0

CCSDS_OMM_VERS = 2.0
CREATION_DATE  = 
ORIGINATOR     = 

OBJECT_NAME    = SL-3 R/B
OBJECT_ID      = 1982-039B
CENTER_NAME    = EARTH
REF_FRAME      = TEME
TIME_SYSTEM    = UTC
MEAN_ELEMENT_THEORY = SGP/SGP4

EPOCH          = 2026-02-24T22:25:13.419840
MEAN_MOTION    = 15.09996189
ECCENTRICITY   = .00299542
INCLINATION    = 81.1588
RA_OF_ASC_NODE = 230.6666
ARG_OF_PERICENTER = 6.1270
MEAN_ANOMALY   = 354.0315

EPHEMERIS_TYPE = 0
CLASSIFICATION_TYPE = U
NORAD_CAT_ID   = 13154
ELEMENT_SET_NO = 999
REV_AT_EPOCH   = 37971
BSTAR          = .13829206E-3
MEAN_MOTION_DOT = .2293E-4
MEAN_MOTION_DDOT = 0

