ATLAS CENTAUR R/B       
1 06155U 72065B   26055.92317753  .00001213  00000+0  16834-3 0  9993
2 06155  35.0027  20.5659 0034463 262.7536  96.9246 14.77644154839373
SL-8 R/B                
1 08459U 75112B   26055.91281024  .00000157  00000+0  60078-4 0  9994
2 08459  74.0602  42.4154 0014758 140.6703 219.5526 14.38195265630039
SL-3 R/B                
1 10114U 77057B   26055.89746270  .00011864  00000+0  25265-3 0  9996
2 10114  97.5758 227.2603 0006756 337.4402  22.6548 15.45083796666350
SEASAT 1                
1 10967U 78064A   26055.83755106  .00000174  00000+0  87225-4 0  9990
2 10967 108.0141  98.5296 0001996 290.8376  69.2555 14.46148862504655
SL-14 R/B               
1 11267U 79011B   26055.56883675  .00000527  00000+0  49482-4 0  9995
2 11267  82.5230 109.0233 0017615 100.7034 259.6170 14.91890990526825
SL-8 R/B                
1 11574U 79089B   26055.49782192  .00000239  00000+0  80156-4 0  9998
2 11574  74.0683 115.4649 0017032 289.5140  70.4176 14.42341796434209
SL-14 R/B               
1 11672U 80005B   26055.23765785  .00000612  00000+0  59362-4 0  9998
2 11672  82.5166 319.9942 0014974 203.2035 156.8510 14.90912018474482
SL-8 R/B                
1 12139U 81003B   26055.62043913  .00015522  00000+0  40481-3 0  9998
2 12139  82.9396 302.1041 0262697 224.0681 133.9351 15.10439524312703
SL-3 R/B                
1 12465U 81046B   26055.86940090  .00010808  00000+0  25416-3 0  9998
2 12465  81.2322 305.1333 0020556  65.0270 295.3105 15.41615420436450
SL-3 R/B                
1 12904U 81103B   26055.88052528  .00005418  00000+0  24136-3 0  9991
2 12904  81.1570 228.4576 0012801 332.2836  27.7712 15.21199663971289
SL-3 R/B                
1 13068U 82013B   26055.89404271  .00004362  00000+0  18953-3 0  9998
2 13068  81.1758 175.7626 0021970 221.0123 138.9457 15.21859246402404
SL-3 R/B                
1 13154U 82039B   26055.93418310  .00002293  00000+0  13829-3 0  9994
2 13154  81.1588 230.6666 0029954   6.1270 354.0315 15.09996189379716
